[{"OBJECT_NAME":"ONEWEB-0635","OBJECT_ID":"2023-043AG","EPOCH":"2026-06-15T07:39:00.477792","MEAN_MOTION":13.15550397,"ECCENTRICITY":0.0001941,"INCLINATION":87.9011,"RA_OF_ASC_NODE":259.5638,"ARG_OF_PERICENTER":92.6851,"MEAN_ANOMALY":267.4501,"EPHEMERIS_TYPE":0,"CLASSIFICATION_TYPE":"U","NORAD_CAT_ID":56076,"ELEMENT_SET_NO":999,"REV_AT_EPOCH":15618,"BSTAR":0.00038227,"MEAN_MOTION_DOT":1.57e-06,"MEAN_MOTION_DDOT":0.0},{"OBJECT_NAME":"ONEWEB-0636","OBJECT_ID":"2023-043AH","EPOCH":"2026-06-15T07:27:37.357920","MEAN_MOTION":13.15549425,"ECCENTRICITY":0.0001977,"INCLINATION":87.9007,"RA_OF_ASC_NODE":259.5717,"ARG_OF_PERICENTER":94.4849,"MEAN_ANOMALY":265.6507,"EPHEMERIS_TYPE":0,"CLASSIFICATION_TYPE":"U","NORAD_CAT_ID":56077,"ELEMENT_SET_NO":999,"REV_AT_EPOCH":15616,"BSTAR":0.00020129,"MEAN_MOTION_DOT":8.9e-07,"MEAN_MOTION_DDOT":0.0},{"OBJECT_NAME":"ONEWEB-0637","OBJECT_ID":"2023-043AJ","EPOCH":"2026-06-15T05:28:58.716768","MEAN_MOTION":13.15548754,"ECCENTRICITY":0.0002266,"INCLINATION":87.8998,"RA_OF_ASC_NODE":259.6048,"ARG_OF_PERICENTER":96.7247,"MEAN_ANOMALY":263.4141,"EPHEMERIS_TYPE":0,"CLASSIFICATION_TYPE":"U","NORAD_CAT_ID":56078,"ELEMENT_SET_NO":999,"REV_AT_EPOCH":15617,"BSTAR":9.6851e-05,"MEAN_MOTION_DOT":4.9e-07,"MEAN_MOTION_DDOT":0.0},{"OBJECT_NAME":"ONEWEB-0647","OBJECT_ID":"2023-043AK","EPOCH":"2026-06-15T07:11:39.621696","MEAN_MOTION":13.15548405,"ECCENTRICITY":0.0001831,"INCLINATION":87.9002,"RA_OF_ASC_NODE":259.6031,"ARG_OF_PERICENTER":97.911,"MEAN_ANOMALY":262.2228,"EPHEMERIS_TYPE":0,"CLASSIFICATION_TYPE":"U","NORAD_CAT_ID":56079,"ELEMENT_SET_NO":999,"REV_AT_EPOCH":15617,"BSTAR":-7.497600000000001e-05,"MEAN_MOTION_DOT":-1.5e-07,"MEAN_MOTION_DDOT":0.0},{"OBJECT_NAME":"ONEWEB-0651","OBJECT_ID":"2023-043AL","EPOCH":"2026-06-15T07:04:48.555552","MEAN_MOTION":13.15549129,"ECCENTRICITY":0.0002099,"INCLINATION":87.8999,"RA_OF_ASC_NODE":259.5976,"ARG_OF_PERICENTER":94.4058,"MEAN_ANOMALY":265.7312,"EPHEMERIS_TYPE":0,"CLASSIFICATION_TYPE":"U","NORAD_CAT_ID":56080,"ELEMENT_SET_NO":999,"REV_AT_EPOCH":15737,"BSTAR":-4.8041e-05,"MEAN_MOTION_DOT":-5e-08,"MEAN_MOTION_DDOT":0.0},{"OBJECT_NAME":"ONEWEB-0718","OBJECT_ID":"2023-043AM","EPOCH":"2026-06-15T06:57:56.172672","MEAN_MOTION":13.15546587,"ECCENTRICITY":0.0002348,"INCLINATION":87.9002,"RA_OF_ASC_NODE":259.5794,"ARG_OF_PERICENTER":110.4346,"MEAN_ANOMALY":249.7036,"EPHEMERIS_TYPE":0,"CLASSIFICATION_TYPE":"U","NORAD_CAT_ID":56081,"ELEMENT_SET_NO":999,"REV_AT_EPOCH":15618,"BSTAR":-0.0002667,"MEAN_MOTION_DOT":-8.8e-07,"MEAN_MOTION_DDOT":0.0},{"OBJECT_NAME":"ONEWEB-0561","OBJECT_ID":"2023-068A","EPOCH":"2026-06-15T00:01:03.550656","MEAN_MOTION":13.20772709,"ECCENTRICITY":0.0001743,"INCLINATION":87.9193,"RA_OF_ASC_NODE":274.8788,"ARG_OF_PERICENTER":90.3791,"MEAN_ANOMALY":269.7543,"EPHEMERIS_TYPE":0,"CLASSIFICATION_TYPE":"U","NORAD_CAT_ID":56710,"ELEMENT_SET_NO":999,"REV_AT_EPOCH":14921,"BSTAR":0.00018382,"MEAN_MOTION_DOT":8.8e-07,"MEAN_MOTION_DDOT":0.0},{"OBJECT_NAME":"ONEWEB-0668","OBJECT_ID":"2023-068B","EPOCH":"2026-06-15T05:24:00.947808","MEAN_MOTION":13.16594098,"ECCENTRICITY":0.0002599,"INCLINATION":87.9095,"RA_OF_ASC_NODE":229.1621,"ARG_OF_PERICENTER":100.423,"MEAN_ANOMALY":259.7194,"EPHEMERIS_TYPE":0,"CLASSIFICATION_TYPE":"U","NORAD_CAT_ID":56711,"ELEMENT_SET_NO":999,"REV_AT_EPOCH":15152,"BSTAR":0.00018178,"MEAN_MOTION_DOT":8.2e-07,"MEAN_MOTION_DDOT":0.0},{"OBJECT_NAME":"ONEWEB-0676","OBJECT_ID":"2023-068C","EPOCH":"2026-06-15T03:45:57.753216","MEAN_MOTION":13.1659305,"ECCENTRICITY":0.0002046,"INCLINATION":87.91,"RA_OF_ASC_NODE":229.1816,"ARG_OF_PERICENTER":88.7584,"MEAN_ANOMALY":271.3782,"EPHEMERIS_TYPE":0,"CLASSIFICATION_TYPE":"U","NORAD_CAT_ID":56712,"ELEMENT_SET_NO":999,"REV_AT_EPOCH":15143,"BSTAR":0.00039664,"MEAN_MOTION_DOT":1.64e-06,"MEAN_MOTION_DDOT":0.0},{"OBJECT_NAME":"ONEWEB-0677","OBJECT_ID":"2023-068D","EPOCH":"2026-06-15T07:00:25.606656","MEAN_MOTION":13.20770309,"ECCENTRICITY":0.0002278,"INCLINATION":87.9192,"RA_OF_ASC_NODE":274.8123,"ARG_OF_PERICENTER":92.9855,"MEAN_ANOMALY":267.1539,"EPHEMERIS_TYPE":0,"CLASSIFICATION_TYPE":"U","NORAD_CAT_ID":56713,"ELEMENT_SET_NO":999,"REV_AT_EPOCH":14955,"BSTAR":7.089e-06,"MEAN_MOTION_DOT":1.6e-07,"MEAN_MOTION_DDOT":0.0},{"OBJECT_NAME":"ONEWEB-0678","OBJECT_ID":"2023-068E","EPOCH":"2026-06-15T06:12:19.416384","MEAN_MOTION":13.15548748,"ECCENTRICITY":0.000168,"INCLINATION":87.9011,"RA_OF_ASC_NODE":259.5772,"ARG_OF_PERICENTER":101.1397,"MEAN_ANOMALY":258.9922,"EPHEMERIS_TYPE":0,"CLASSIFICATION_TYPE":"U","NORAD_CAT_ID":56714,"ELEMENT_SET_NO":999,"REV_AT_EPOCH":14903,"BSTAR":0.00042068,"MEAN_MOTION_DOT":1.71e-06,"MEAN_MOTION_DDOT":0.0},{"OBJECT_NAME":"ONEWEB-0679","OBJECT_ID":"2023-068F","EPOCH":"2026-06-15T04:36:07.910208","MEAN_MOTION":13.16594907,"ECCENTRICITY":0.0002589,"INCLINATION":87.91,"RA_OF_ASC_NODE":229.1662,"ARG_OF_PERICENTER":91.4814,"MEAN_ANOMALY":268.6614,"EPHEMERIS_TYPE":0,"CLASSIFICATION_TYPE":"U","NORAD_CAT_ID":56715,"ELEMENT_SET_NO":999,"REV_AT_EPOCH":15146,"BSTAR":0.00021291,"MEAN_MOTION_DOT":9.4e-07,"MEAN_MOTION_DDOT":0.0},{"OBJECT_NAME":"ONEWEB-0680","OBJECT_ID":"2023-068G","EPOCH":"2026-06-15T06:42:00.378720","MEAN_MOTION":13.21827963,"ECCENTRICITY":0.0002614,"INCLINATION":87.9262,"RA_OF_ASC_NODE":244.3504,"ARG_OF_PERICENTER":98.5399,"MEAN_ANOMALY":261.6031,"EPHEMERIS_TYPE":0,"CLASSIFICATION_TYPE":"U","NORAD_CAT_ID":56716,"ELEMENT_SET_NO":999,"REV_AT_EPOCH":15084,"BSTAR":0.00014166000000000002,"MEAN_MOTION_DOT":7.2e-07,"MEAN_MOTION_DDOT":0.0},{"OBJECT_NAME":"ONEWEB-0681","OBJECT_ID":"2023-068H","EPOCH":"2026-06-15T06:14:09.211776","MEAN_MOTION":13.21827025,"ECCENTRICITY":0.000206,"INCLINATION":87.9259,"RA_OF_ASC_NODE":244.3557,"ARG_OF_PERICENTER":71.8315,"MEAN_ANOMALY":288.3043,"EPHEMERIS_TYPE":0,"CLASSIFICATION_TYPE":"U","NORAD_CAT_ID":56717,"ELEMENT_SET_NO":999,"REV_AT_EPOCH":15083,"BSTAR":5.6391e-05,"MEAN_MOTION_DOT":3.6e-07,"MEAN_MOTION_DDOT":0.0},{"OBJECT_NAME":"ONEWEB-0682","OBJECT_ID":"2023-068J","EPOCH":"2026-06-15T06:46:33.521952","MEAN_MOTION":13.15548933,"ECCENTRICITY":0.0002552,"INCLINATION":87.9008,"RA_OF_ASC_NODE":259.5733,"ARG_OF_PERICENTER":99.489,"MEAN_ANOMALY":260.6529,"EPHEMERIS_TYPE":0,"CLASSIFICATION_TYPE":"U","NORAD_CAT_ID":56718,"ELEMENT_SET_NO":999,"REV_AT_EPOCH":14920,"BSTAR":-0.00033169,"MEAN_MOTION_DOT":-1.12e-06,"MEAN_MOTION_DDOT":0.0},{"OBJECT_NAME":"ONEWEB-0683","OBJECT_ID":"2023-068K","EPOCH":"2026-06-15T05:31:15.760128","MEAN_MOTION":13.1554865,"ECCENTRICITY":0.0002249,"INCLINATION":87.901,"RA_OF_ASC_NODE":259.5834,"ARG_OF_PERICENTER":103.3298,"MEAN_ANOMALY":256.8083,"EPHEMERIS_TYPE":0,"CLASSIFICATION_TYPE":"U","NORAD_CAT_ID":56719,"ELEMENT_SET_NO":999,"REV_AT_EPOCH":14916,"BSTAR":0.00013562,"MEAN_MOTION_DOT":6.4e-07,"MEAN_MOTION_DDOT":0.0}]