ONEWEB-0635             
1 56076U 23043AG  26166.31875553  .00000157  00000+0  38227-3 0  9991
2 56076  87.9011 259.5638 0001941  92.6851 267.4501 13.15550397156181
ONEWEB-0636             
1 56077U 23043AH  26166.31084905  .00000089  00000+0  20129-3 0  9991
2 56077  87.9007 259.5717 0001977  94.4849 265.6507 13.15549425156165
ONEWEB-0637             
1 56078U 23043AJ  26166.22845737  .00000049  00000+0  96851-4 0  9992
2 56078  87.8998 259.6048 0002266  96.7247 263.4141 13.15548754156176
ONEWEB-0647             
1 56079U 23043AK  26166.29976414 -.00000015  00000+0 -74976-4 0  9996
2 56079  87.9002 259.6031 0001831  97.9110 262.2228 13.15548405156171
ONEWEB-0651             
1 56080U 23043AL  26166.29500643 -.00000005  00000+0 -48041-4 0  9998
2 56080  87.8999 259.5976 0002099  94.4058 265.7312 13.15549129157373
ONEWEB-0718             
1 56081U 23043AM  26166.29023348 -.00000088  00000+0 -26670-3 0  9995
2 56081  87.9002 259.5794 0002348 110.4346 249.7036 13.15546587156182
ONEWEB-0561             
1 56710U 23068A   26166.00073554  .00000088  00000+0  18382-3 0  9993
2 56710  87.9193 274.8788 0001743  90.3791 269.7543 13.20772709149217
ONEWEB-0668             
1 56711U 23068B   26166.22501097  .00000082  00000+0  18178-3 0  9993
2 56711  87.9095 229.1621 0002599 100.4230 259.7194 13.16594098151525
ONEWEB-0676             
1 56712U 23068C   26166.15691844  .00000164  00000+0  39664-3 0  9990
2 56712  87.9100 229.1816 0002046  88.7584 271.3782 13.16593050151436
ONEWEB-0677             
1 56713U 23068D   26166.29196304  .00000016  00000+0  70890-5 0  9991
2 56713  87.9192 274.8123 0002278  92.9855 267.1539 13.20770309149553
ONEWEB-0678             
1 56714U 23068E   26166.25855806  .00000171  00000+0  42068-3 0  9993
2 56714  87.9011 259.5772 0001680 101.1397 258.9922 13.15548748149035
ONEWEB-0679             
1 56715U 23068F   26166.19175822  .00000094  00000+0  21291-3 0  9999
2 56715  87.9100 229.1662 0002589  91.4814 268.6614 13.16594907151465
ONEWEB-0680             
1 56716U 23068G   26166.27917105  .00000072  00000+0  14166-3 0  9996
2 56716  87.9262 244.3504 0002614  98.5399 261.6031 13.21827963150848
ONEWEB-0681             
1 56717U 23068H   26166.25982884  .00000036  00000+0  56391-4 0  9998
2 56717  87.9259 244.3557 0002060  71.8315 288.3043 13.21827025150837
ONEWEB-0682             
1 56718U 23068J   26166.28233243 -.00000112  00000+0 -33169-3 0  9994
2 56718  87.9008 259.5733 0002552  99.4890 260.6529 13.15548933149206
ONEWEB-0683             
1 56719U 23068K   26166.23004352  .00000064  00000+0  13562-3 0  9996
2 56719  87.9010 259.5834 0002249 103.3298 256.8083 13.15548650149165
